[{"OBJECT_NAME":"ONEWEB-0394","OBJECT_ID":"2021-132F","EPOCH":"2026-03-09T18:36:44.752608","MEAN_MOTION":13.18686524,"ECCENTRICITY":0.00016457,"INCLINATION":87.925,"RA_OF_ASC_NODE":355.1843,"ARG_OF_PERICENTER":74.3964,"MEAN_ANOMALY":285.735,"EPHEMERIS_TYPE":0,"CLASSIFICATION_TYPE":"U","NORAD_CAT_ID":50474,"ELEMENT_SET_NO":999,"REV_AT_EPOCH":20849,"BSTAR":0.00017179354,"MEAN_MOTION_DOT":8.1e-7,"MEAN_MOTION_DDOT":0},{"OBJECT_NAME":"SL-8 R\/B","OBJECT_ID":"1969-024B","EPOCH":"2026-03-09T20:50:53.404224","MEAN_MOTION":13.19585212,"ECCENTRICITY":0.00099465,"INCLINATION":73.9913,"RA_OF_ASC_NODE":323.068,"ARG_OF_PERICENTER":168.6107,"MEAN_ANOMALY":264.7617,"EPHEMERIS_TYPE":0,"CLASSIFICATION_TYPE":"U","NORAD_CAT_ID":3819,"ELEMENT_SET_NO":999,"REV_AT_EPOCH":74378,"BSTAR":0.00036735178,"MEAN_MOTION_DOT":1.27e-6,"MEAN_MOTION_DDOT":0}]
